CCSDS_OMM_VERS = 2.0
CREATION_DATE  = 
ORIGINATOR     = 

OBJECT_NAME    = TWILIGHT T
OBJECT_ID      = 2026-004T
CENTER_NAME    = EARTH
REF_FRAME      = TEME
TIME_SYSTEM    = UTC
MEAN_ELEMENT_THEORY = SGP/SGP4

EPOCH          = 2026-01-25T06:24:10.536768
MEAN_MOTION    = 14.87791306
ECCENTRICITY   = .00036464
INCLINATION    = 97.7974
RA_OF_ASC_NODE = 26.2038
ARG_OF_PERICENTER = 235.3006
MEAN_ANOMALY   = 124.7867

EPHEMERIS_TYPE = 0
CLASSIFICATION_TYPE = U
NORAD_CAT_ID   = 67380
ELEMENT_SET_NO = 999
REV_AT_EPOCH   = 203
BSTAR          = .61346889E-3
MEAN_MOTION_DOT = .555E-4
MEAN_MOTION_DDOT = 0

CCSDS_OMM_VERS = 2.0
CREATION_DATE  = 
ORIGINATOR     = 

OBJECT_NAME    = TWILIGHT U
OBJECT_ID      = 2026-004U
CENTER_NAME    = EARTH
REF_FRAME      = TEME
TIME_SYSTEM    = UTC
MEAN_ELEMENT_THEORY = SGP/SGP4

EPOCH          = 2026-01-25T06:22:22.441728
MEAN_MOTION    = 14.87924942
ECCENTRICITY   = .00039448
INCLINATION    = 97.8011
RA_OF_ASC_NODE = 26.2103
ARG_OF_PERICENTER = 223.2255
MEAN_ANOMALY   = 136.8652

EPHEMERIS_TYPE = 0
CLASSIFICATION_TYPE = U
NORAD_CAT_ID   = 67381
ELEMENT_SET_NO = 999
REV_AT_EPOCH   = 203
BSTAR          = .77777738E-3
MEAN_MOTION_DOT = .7076E-4
MEAN_MOTION_DDOT = 0

CCSDS_OMM_VERS = 2.0
CREATION_DATE  = 
ORIGINATOR     = 

OBJECT_NAME    = TWILIGHT V
OBJECT_ID      = 2026-004V
CENTER_NAME    = EARTH
REF_FRAME      = TEME
TIME_SYSTEM    = UTC
MEAN_ELEMENT_THEORY = SGP/SGP4

EPOCH          = 2026-01-25T06:21:31.400064
MEAN_MOTION    = 14.87986566
ECCENTRICITY   = .00035483
INCLINATION    = 97.8001
RA_OF_ASC_NODE = 26.2087
ARG_OF_PERICENTER = 218.0079
MEAN_ANOMALY   = 142.0887

EPHEMERIS_TYPE = 0
CLASSIFICATION_TYPE = U
NORAD_CAT_ID   = 67382
ELEMENT_SET_NO = 999
REV_AT_EPOCH   = 203
BSTAR          = .59993033E-3
MEAN_MOTION_DOT = .5452E-4
MEAN_MOTION_DDOT = 0

CCSDS_OMM_VERS = 2.0
CREATION_DATE  = 
ORIGINATOR     = 

OBJECT_NAME    = TWILIGHT W
OBJECT_ID      = 2026-004W
CENTER_NAME    = EARTH
REF_FRAME      = TEME
TIME_SYSTEM    = UTC
MEAN_ELEMENT_THEORY = SGP/SGP4

EPOCH          = 2026-01-25T06:25:09.022656
MEAN_MOTION    = 14.87708393
ECCENTRICITY   = .00039552
INCLINATION    = 97.7978
RA_OF_ASC_NODE = 26.2035
ARG_OF_PERICENTER = 237.6756
MEAN_ANOMALY   = 122.4078

EPHEMERIS_TYPE = 0
CLASSIFICATION_TYPE = U
NORAD_CAT_ID   = 67383
ELEMENT_SET_NO = 999
REV_AT_EPOCH   = 203
BSTAR          = .60795115E-3
MEAN_MOTION_DOT = .5488E-4
MEAN_MOTION_DDOT = 0

CCSDS_OMM_VERS = 2.0
CREATION_DATE  = 
ORIGINATOR     = 

OBJECT_NAME    = TWILIGHT X
OBJECT_ID      = 2026-004X
CENTER_NAME    = EARTH
REF_FRAME      = TEME
TIME_SYSTEM    = UTC
MEAN_ELEMENT_THEORY = SGP/SGP4

EPOCH          = 2026-01-25T06:20:21.306336
MEAN_MOTION    = 14.88149774
ECCENTRICITY   = .00029409
INCLINATION    = 97.7977
RA_OF_ASC_NODE = 26.2078
ARG_OF_PERICENTER = 219.8123
MEAN_ANOMALY   = 140.2879

EPHEMERIS_TYPE = 0
CLASSIFICATION_TYPE = U
NORAD_CAT_ID   = 67384
ELEMENT_SET_NO = 999
REV_AT_EPOCH   = 203
BSTAR          = .11570535E-2
MEAN_MOTION_DOT = .10616E-3
MEAN_MOTION_DDOT = 0

CCSDS_OMM_VERS = 2.0
CREATION_DATE  = 
ORIGINATOR     = 

OBJECT_NAME    = TWILIGHT Y
OBJECT_ID      = 2026-004Y
CENTER_NAME    = EARTH
REF_FRAME      = TEME
TIME_SYSTEM    = UTC
MEAN_ELEMENT_THEORY = SGP/SGP4

EPOCH          = 2026-01-25T06:19:14.103552
MEAN_MOTION    = 14.88231817
ECCENTRICITY   = .00028422
INCLINATION    = 97.7988
RA_OF_ASC_NODE = 26.2096
ARG_OF_PERICENTER = 212.4051
MEAN_ANOMALY   = 147.6992

EPHEMERIS_TYPE = 0
CLASSIFICATION_TYPE = U
NORAD_CAT_ID   = 67385
ELEMENT_SET_NO = 999
REV_AT_EPOCH   = 203
BSTAR          = .10388663E-2
MEAN_MOTION_DOT = .9544E-4
MEAN_MOTION_DDOT = 0

CCSDS_OMM_VERS = 2.0
CREATION_DATE  = 
ORIGINATOR     = 

OBJECT_NAME    = TWILIGHT Z
OBJECT_ID      = 2026-004Z
CENTER_NAME    = EARTH
REF_FRAME      = TEME
TIME_SYSTEM    = UTC
MEAN_ELEMENT_THEORY = SGP/SGP4

EPOCH          = 2026-01-25T06:17:18.970368
MEAN_MOTION    = 14.88293821
ECCENTRICITY   = .00017233
INCLINATION    = 97.7968
RA_OF_ASC_NODE = 26.2109
ARG_OF_PERICENTER = 209.7150
MEAN_ANOMALY   = 150.3969

EPHEMERIS_TYPE = 0
CLASSIFICATION_TYPE = U
NORAD_CAT_ID   = 67386
ELEMENT_SET_NO = 999
REV_AT_EPOCH   = 203
BSTAR          = .44712313E-3
MEAN_MOTION_DOT = .408E-4
MEAN_MOTION_DDOT = 0

CCSDS_OMM_VERS = 2.0
CREATION_DATE  = 
ORIGINATOR     = 

OBJECT_NAME    = TWILIGHT AA
OBJECT_ID      = 2026-004AA
CENTER_NAME    = EARTH
REF_FRAME      = TEME
TIME_SYSTEM    = UTC
MEAN_ELEMENT_THEORY = SGP/SGP4

EPOCH          = 2026-01-25T06:14:15.720288
MEAN_MOTION    = 14.88572298
ECCENTRICITY   = .00028634
INCLINATION    = 97.8019
RA_OF_ASC_NODE = 26.2151
ARG_OF_PERICENTER = 173.6878
MEAN_ANOMALY   = 186.4376

EPHEMERIS_TYPE = 0
CLASSIFICATION_TYPE = U
NORAD_CAT_ID   = 67387
ELEMENT_SET_NO = 999
REV_AT_EPOCH   = 203
BSTAR          = .67621949E-3
MEAN_MOTION_DOT = .6243E-4
MEAN_MOTION_DDOT = 0

CCSDS_OMM_VERS = 2.0
CREATION_DATE  = 
ORIGINATOR     = 

OBJECT_NAME    = TWILIGHT AB
OBJECT_ID      = 2026-004AB
CENTER_NAME    = EARTH
REF_FRAME      = TEME
TIME_SYSTEM    = UTC
MEAN_ELEMENT_THEORY = SGP/SGP4

EPOCH          = 2026-01-25T06:12:33.991200
MEAN_MOTION    = 14.88675817
ECCENTRICITY   = .00024954
INCLINATION    = 97.8008
RA_OF_ASC_NODE = 26.2163
ARG_OF_PERICENTER = 158.5634
MEAN_ANOMALY   = 201.5688

EPHEMERIS_TYPE = 0
CLASSIFICATION_TYPE = U
NORAD_CAT_ID   = 67388
ELEMENT_SET_NO = 999
REV_AT_EPOCH   = 203
BSTAR          = .63267453E-3
MEAN_MOTION_DOT = .5852E-4
MEAN_MOTION_DDOT = 0

CCSDS_OMM_VERS = 2.0
CREATION_DATE  = 
ORIGINATOR     = 

OBJECT_NAME    = TWILIGHT AC
OBJECT_ID      = 2026-004AC
CENTER_NAME    = EARTH
REF_FRAME      = TEME
TIME_SYSTEM    = UTC
MEAN_ELEMENT_THEORY = SGP/SGP4

EPOCH          = 2026-01-25T06:28:01.898688
MEAN_MOTION    = 15.16993579
ECCENTRICITY   = .00051374
INCLINATION    = 97.4570
RA_OF_ASC_NODE = 26.4187
ARG_OF_PERICENTER = 107.4657
MEAN_ANOMALY   = 252.7139

EPHEMERIS_TYPE = 0
CLASSIFICATION_TYPE = U
NORAD_CAT_ID   = 67389
ELEMENT_SET_NO = 999
REV_AT_EPOCH   = 207
BSTAR          = .48702823E-3
MEAN_MOTION_DOT = .9563E-4
MEAN_MOTION_DDOT = 0

CCSDS_OMM_VERS = 2.0
CREATION_DATE  = 
ORIGINATOR     = 

OBJECT_NAME    = TWILIGHT AD
OBJECT_ID      = 2026-004AD
CENTER_NAME    = EARTH
REF_FRAME      = TEME
TIME_SYSTEM    = UTC
MEAN_ELEMENT_THEORY = SGP/SGP4

EPOCH          = 2026-01-25T06:27:20.524320
MEAN_MOTION    = 15.17022760
ECCENTRICITY   = .00053843
INCLINATION    = 97.4571
RA_OF_ASC_NODE = 26.4210
ARG_OF_PERICENTER = 105.6808
MEAN_ANOMALY   = 254.5019

EPHEMERIS_TYPE = 0
CLASSIFICATION_TYPE = U
NORAD_CAT_ID   = 67390
ELEMENT_SET_NO = 999
REV_AT_EPOCH   = 207
BSTAR          = .8509602E-3
MEAN_MOTION_DOT = .1679E-3
MEAN_MOTION_DDOT = 0

CCSDS_OMM_VERS = 2.0
CREATION_DATE  = 
ORIGINATOR     = 

OBJECT_NAME    = TWILIGHT AE
OBJECT_ID      = 2026-004AE
CENTER_NAME    = EARTH
REF_FRAME      = TEME
TIME_SYSTEM    = UTC
MEAN_ELEMENT_THEORY = SGP/SGP4

EPOCH          = 2026-01-25T06:24:47.779488
MEAN_MOTION    = 15.17189856
ECCENTRICITY   = .00068225
INCLINATION    = 97.4523
RA_OF_ASC_NODE = 26.4134
ARG_OF_PERICENTER = 102.0403
MEAN_ANOMALY   = 258.1595

EPHEMERIS_TYPE = 0
CLASSIFICATION_TYPE = U
NORAD_CAT_ID   = 67391
ELEMENT_SET_NO = 999
REV_AT_EPOCH   = 207
BSTAR          = .57091927E-3
MEAN_MOTION_DOT = .11291E-3
MEAN_MOTION_DDOT = 0

