TWILIGHT T              
1 67380U 26004T   26025.26678862  .00005550  00000+0  61347-3 0  9994
2 67380  97.7974  26.2038 0003646 235.3006 124.7867 14.87791306  2034
TWILIGHT U              
1 67381U 26004U   26025.26553752  .00007076  00000+0  77778-3 0  9995
2 67381  97.8011  26.2103 0003944 223.2255 136.8652 14.87924942  2034
TWILIGHT V              
1 67382U 26004V   26025.26494676  .00005452  00000+0  59993-3 0  9990
2 67382  97.8001  26.2087 0003548 218.0079 142.0887 14.87986566  2030
TWILIGHT W              
1 67383U 26004W   26025.26746554  .00005488  00000+0  60795-3 0  9997
2 67383  97.7978  26.2035 0003955 237.6756 122.4078 14.87708393  2031
TWILIGHT X              
1 67384U 26004X   26025.26413549  .00010616  00000+0  11571-2 0  9999
2 67384  97.7977  26.2078 0002940 219.8123 140.2879 14.88149774  2031
TWILIGHT Y              
1 67385U 26004Y   26025.26335768  .00009544  00000+0  10389-2 0  9990
2 67385  97.7988  26.2096 0002842 212.4051 147.6992 14.88231817  2031
TWILIGHT Z              
1 67386U 26004Z   26025.26202512  .00004080  00000+0  44712-3 0  9999
2 67386  97.7968  26.2109 0001723 209.7150 150.3969 14.88293821  2039
TWILIGHT AA             
1 67387U 26004AA  26025.25990417  .00006243  00000+0  67622-3 0  9995
2 67387  97.8019  26.2151 0002863 173.6878 186.4376 14.88572298  2037
TWILIGHT AB             
1 67388U 26004AB  26025.25872675  .00005852  00000+0  63267-3 0  9997
2 67388  97.8008  26.2163 0002495 158.5634 201.5688 14.88675817  2038
TWILIGHT AC             
1 67389U 26004AC  26025.26946642  .00009563  00000+0  48703-3 0  9996
2 67389  97.4570  26.4187 0005137 107.4657 252.7139 15.16993579  2074
TWILIGHT AD             
1 67390U 26004AD  26025.26898755  .00016790  00000+0  85096-3 0  9995
2 67390  97.4571  26.4210 0005384 105.6808 254.5019 15.17022760  2079
TWILIGHT AE             
1 67391U 26004AE  26025.26721967  .00011291  00000+0  57092-3 0  9992
2 67391  97.4523  26.4134 0006822 102.0403 258.1595 15.17189856  2071
